[Satellite]
VERSION=1.1
NAME=KOREASAT 5 (MUGUNGWHA 5)
NICKNAME=KOREASAT 5 (MUGUNGWHA 5)
TLE1=1 29349U 06034A   15053.58389291 -.00000383  00000-0  10000-3 0  9998
TLE2=2 29349   0.0261  98.2528 0002452 143.2146 233.9210  1.00272035 31202
